{
  "norad_id": 68315,
  "name": "STARLINK-37150",
  "history": [
    {
      "epoch": "2026-03-28T20:00:01.999872Z",
      "apogee_km": 264.3742792265484,
      "perigee_km": 262.7736268868621,
      "latitude_deg": -82.75227894781885,
      "longitude_deg": 171.70958245465056,
      "height_km": 292.7900601535317,
      "semi_major_axis_km": 6641.710953056705,
      "eccentricity": 0.0001205,
      "inclination_deg": 97.2786,
      "raan_deg": 210.9705,
      "arg_perigee_deg": 87.5524,
      "mean_anomaly_deg": 182.8305,
      "mean_motion_rev_day": 16.03920378
    }
  ]
}